{
  "type": "FeatureCollection",
  "features": [
    {
      "type": "Feature",
      "properties": {
        "norad_id": 36036,
        "name": "SMOS",
        "group": "resource",
        "lat": -71.19789683282671,
        "lon": -150.95218676462935,
        "alt_km": 767.2720433774948,
        "timestamp": "2025-12-24T07:45:05.855624+00:00",
        "meta_object_name": "SMOS",
        "meta_object_id": "2009-059A",
        "meta_epoch": "2025-12-23T10:24:28.556640",
        "meta_mean_motion": 14.3975039,
        "meta_eccentricity": 0.00010549,
        "meta_inclination": 98.438,
        "meta_ra_of_asc_node": 182.3237,
        "meta_arg_of_pericenter": 83.5297,
        "meta_mean_anomaly": 276.6011,
        "meta_ephemeris_type": 0,
        "meta_classification_type": "U",
        "meta_norad_cat_id": 36036,
        "meta_element_set_no": 999,
        "meta_rev_at_epoch": 84816,
        "meta_bstar": 0.00012930824,
        "meta_mean_motion_dot": 3.62e-06,
        "meta_mean_motion_ddot": 0,
        "tle_line1": "1 36036U 09059A   25357.43366385  .00000362  00000+0  12931-3 0  9990",
        "tle_line2": "2 36036  98.4380 182.3237 0001054  83.5297 276.6011 14.39750390848163"
      },
      "geometry": {
        "type": "Point",
        "coordinates": [
          -150.95218676462935,
          -71.19789683282671
        ]
      }
    },
    {
      "type": "Feature",
      "properties": {
        "norad_id": 36110,
        "name": "YAOGAN-7",
        "group": "resource",
        "lat": -71.89007248117278,
        "lon": 34.46722917883284,
        "alt_km": 627.6485726464252,
        "timestamp": "2025-12-24T07:45:05.855634+00:00",
        "meta_object_name": "YAOGAN-7",
        "meta_object_id": "2009-069A",
        "meta_epoch": "2025-12-23T22:28:50.963808",
        "meta_mean_motion": 14.77747994,
        "meta_eccentricity": 0.00234259,
        "meta_inclination": 98.0295,
        "meta_ra_of_asc_node": 239.6534,
        "meta_arg_of_pericenter": 243.1093,
        "meta_mean_anomaly": 116.7723,
        "meta_ephemeris_type": 0,
        "meta_classification_type": "U",
        "meta_norad_cat_id": 36110,
        "meta_element_set_no": 999,
        "meta_rev_at_epoch": 86374,
        "meta_bstar": 9.280503e-05,
        "meta_mean_motion_dot": 6.15e-06,
        "meta_mean_motion_ddot": 0,
        "tle_line1": "1 36110U 09069A   25357.93670097  .00000615  00000+0  92805-4 0  9997",
        "tle_line2": "2 36110  98.0295 239.6534 0023425 243.1093 116.7723 14.77747994863740"
      },
      "geometry": {
        "type": "Point",
        "coordinates": [
          34.46722917883284,
          -71.89007248117278
        ]
      }
    },
    {
      "type": "Feature",
      "properties": {
        "norad_id": 36605,
        "name": "TANDEM-X",
        "group": "resource",
        "lat": 62.06584732484503,
        "lon": -10.744497989704698,
        "alt_km": 501.3132956461968,
        "timestamp": "2025-12-24T07:45:05.855644+00:00",
        "meta_object_name": "TANDEM-X",
        "meta_object_id": "2010-030A",
        "meta_epoch": "2025-12-23T10:55:27.931296",
        "meta_mean_motion": 15.19148406,
        "meta_eccentricity": 0.00017726,
        "meta_inclination": 97.4453,
        "meta_ra_of_asc_node": 2.6785,
        "meta_arg_of_pericenter": 93.7268,
        "meta_mean_anomaly": 266.4169,
        "meta_ephemeris_type": 0,
        "meta_classification_type": "U",
        "meta_norad_cat_id": 36605,
        "meta_element_set_no": 999,
        "meta_rev_at_epoch": 85996,
        "meta_bstar": 4.175648e-05,
        "meta_mean_motion_dot": 8.1e-06,
        "meta_mean_motion_ddot": 0,
        "tle_line1": "1 36605U 10030A   25357.45518439  .00000810  00000+0  41756-4 0  9990",
        "tle_line2": "2 36605  97.4453   2.6785 0001772  93.7268 266.4169 15.19148406859964"
      },
      "geometry": {
        "type": "Point",
        "coordinates": [
          -10.744497989704698,
          62.06584732484503
        ]
      }
    },
    {
      "type": "Feature",
      "properties": {
        "norad_id": 36795,
        "name": "CARTOSAT-2B",
        "group": "resource",
        "lat": -41.72373466446248,
        "lon": -140.02998482531487,
        "alt_km": 648.7952514682456,
        "timestamp": "2025-12-24T07:45:05.855655+00:00",
        "meta_object_name": "CARTOSAT-2B",
        "meta_object_id": "2010-035A",
        "meta_epoch": "2025-12-23T22:37:50.544768",
        "meta_mean_motion": 14.78738629,
        "meta_eccentricity": 0.00126513,
        "meta_inclination": 97.7835,
        "meta_ra_of_asc_node": 46.6082,
        "meta_arg_of_pericenter": 43.4577,
        "meta_mean_anomaly": 316.763,
        "meta_ephemeris_type": 0,
        "meta_classification_type": "U",
        "meta_norad_cat_id": 36795,
        "meta_element_set_no": 999,
        "meta_rev_at_epoch": 83395,
        "meta_bstar": 3.127046e-05,
        "meta_mean_motion_dot": 1.8e-06,
        "meta_mean_motion_ddot": 0,
        "tle_line1": "1 36795U 10035A   25357.94294612  .00000180  00000+0  31270-4 0  9993",
        "tle_line2": "2 36795  97.7835  46.6082 0012651  43.4577 316.7630 14.78738629833951"
      },
      "geometry": {
        "type": "Point",
        "coordinates": [
          -140.02998482531487,
          -41.72373466446248
        ]
      }
    },
    {
      "type": "Feature",
      "properties": {
        "norad_id": 36834,
        "name": "YAOGAN-10",
        "group": "resource",
        "lat": -7.976633315424146,
        "lon": -163.06072997427444,
        "alt_km": 618.9712667561053,
        "timestamp": "2025-12-24T07:45:05.855665+00:00",
        "meta_object_name": "YAOGAN-10",
        "meta_object_id": "2010-038A",
        "meta_epoch": "2025-12-23T23:13:04.255968",
        "meta_mean_motion": 14.84648116,
        "meta_eccentricity": 0.00013366,
        "meta_inclination": 97.9128,
        "meta_ra_of_asc_node": 17.7031,
        "meta_arg_of_pericenter": 81.6274,
        "meta_mean_anomaly": 7.0021,
        "meta_ephemeris_type": 0,
        "meta_classification_type": "U",
        "meta_norad_cat_id": 36834,
        "meta_element_set_no": 999,
        "meta_rev_at_epoch": 83120,
        "meta_bstar": 0.00026813458,
        "meta_mean_motion_dot": 2.214e-05,
        "meta_mean_motion_ddot": 0,
        "tle_line1": "1 36834U 10038A   25357.96741037  .00002214  00000+0  26813-3 0  9996",
        "tle_line2": "2 36834  97.9128  17.7031 0001336  81.6274   7.0021 14.84648116831209"
      },
      "geometry": {
        "type": "Point",
        "coordinates": [
          -163.06072997427444,
          -7.976633315424146
        ]
      }
    },
    {
      "type": "Feature",
      "properties": {
        "norad_id": 37216,
        "name": "COSMO-SKYMED 4",
        "group": "resource",
        "lat": 7.763437381175857,
        "lon": 178.38952493371139,
        "alt_km": 624.1765072049984,
        "timestamp": "2025-12-24T07:45:05.855690+00:00",
        "meta_object_name": "COSMO-SKYMED 4",
        "meta_object_id": "2010-060A",
        "meta_epoch": "2025-12-23T23:36:54.404064",
        "meta_mean_motion": 14.82156925,
        "meta_eccentricity": 0.00013548,
        "meta_inclination": 97.8801,
        "meta_ra_of_asc_node": 179.1377,
        "meta_arg_of_pericenter": 80.3932,
        "meta_mean_anomaly": 279.7434,
        "meta_ephemeris_type": 0,
        "meta_classification_type": "U",
        "meta_norad_cat_id": 37216,
        "meta_element_set_no": 999,
        "meta_rev_at_epoch": 81861,
        "meta_bstar": 6.1366552e-05,
        "meta_mean_motion_dot": 4.36e-06,
        "meta_mean_motion_ddot": 0,
        "tle_line1": "1 37216U 10060A   25357.98396301  .00000436  00000+0  61367-4 0  9996",
        "tle_line2": "2 37216  97.8801 179.1377 0001354  80.3932 279.7434 14.82156925818610"
      },
      "geometry": {
        "type": "Point",
        "coordinates": [
          178.38952493371139,
          7.763437381175857
        ]
      }
    },
    {
      "type": "Feature",
      "properties": {
        "norad_id": 37387,
        "name": "RESOURCESAT-2",
        "group": "resource",
        "lat": -27.59300972929859,
        "lon": 66.45818230602899,
        "alt_km": 822.3655404313886,
        "timestamp": "2025-12-24T07:45:05.855702+00:00",
        "meta_object_name": "RESOURCESAT-2",
        "meta_object_id": "2011-015A",
        "meta_epoch": "2025-12-23T21:44:51.192384",
        "meta_mean_motion": 14.21601466,
        "meta_eccentricity": 0.00058793,
        "meta_inclination": 98.7861,
        "meta_ra_of_asc_node": 61.4071,
        "meta_arg_of_pericenter": 12.1346,
        "meta_mean_anomaly": 347.9972,
        "meta_ephemeris_type": 0,
        "meta_classification_type": "U",
        "meta_norad_cat_id": 37387,
        "meta_element_set_no": 999,
        "meta_rev_at_epoch": 76127,
        "meta_bstar": 8.2504984e-05,
        "meta_mean_motion_dot": 1.36e-06,
        "meta_mean_motion_ddot": 0,
        "tle_line1": "1 37387U 11015A   25357.90614806  .00000136  00000+0  82505-4 0  9995",
        "tle_line2": "2 37387  98.7861  61.4071 0005879  12.1346 347.9972 14.21601466761279"
      },
      "geometry": {
        "type": "Point",
        "coordinates": [
          66.45818230602899,
          -27.59300972929859
        ]
      }
    }
  ]
}